CCSDS_OMM_VERS = 2.0
CREATION_DATE  = 
ORIGINATOR     = 

OBJECT_NAME    = SL-14 R/B
OBJECT_ID      = 1986-046B
CENTER_NAME    = EARTH
REF_FRAME      = TEME
TIME_SYSTEM    = UTC
MEAN_ELEMENT_THEORY = SGP/SGP4

EPOCH          = 2026-01-03T03:14:05.291808
MEAN_MOTION    = 14.85514581
ECCENTRICITY   = .0024548
INCLINATION    = 82.4827
RA_OF_ASC_NODE = 142.1091
ARG_OF_PERICENTER = 85.0922
MEAN_ANOMALY   = 275.3096

EPHEMERIS_TYPE = 0
CLASSIFICATION_TYPE = U
NORAD_CAT_ID   = 16792
ELEMENT_SET_NO = 999
REV_AT_EPOCH   = 11667
BSTAR          = .11713E-3
MEAN_MOTION_DOT = .1041E-4
MEAN_MOTION_DDOT = 0

CCSDS_OMM_VERS = 2.0
CREATION_DATE  = 
ORIGINATOR     = 

OBJECT_NAME    = SL-14 R/B
OBJECT_ID      = 1986-055B
CENTER_NAME    = EARTH
REF_FRAME      = TEME
TIME_SYSTEM    = UTC
MEAN_ELEMENT_THEORY = SGP/SGP4

EPOCH          = 2026-01-03T00:11:29.573088
MEAN_MOTION    = 14.85557648
ECCENTRICITY   = .0018709
INCLINATION    = 82.5198
RA_OF_ASC_NODE = 188.3873
ARG_OF_PERICENTER = 185.2571
MEAN_ANOMALY   = 291.2672

EPHEMERIS_TYPE = 0
CLASSIFICATION_TYPE = U
NORAD_CAT_ID   = 16882
ELEMENT_SET_NO = 999
REV_AT_EPOCH   = 10961
BSTAR          = .1171E-3
MEAN_MOTION_DOT = .1039E-4
MEAN_MOTION_DDOT = 0

CCSDS_OMM_VERS = 2.0
CREATION_DATE  = 
ORIGINATOR     = 

OBJECT_NAME    = AJISAI (EGS)
OBJECT_ID      = 1986-061A
CENTER_NAME    = EARTH
REF_FRAME      = TEME
TIME_SYSTEM    = UTC
MEAN_ELEMENT_THEORY = SGP/SGP4

EPOCH          = 2026-01-03T04:57:21.453984
MEAN_MOTION    = 12.44514585
ECCENTRICITY   = .0011319
INCLINATION    = 50.0104
RA_OF_ASC_NODE = 294.7095
ARG_OF_PERICENTER = 119.7688
MEAN_ANOMALY   = 45.8655

EPHEMERIS_TYPE = 0
CLASSIFICATION_TYPE = U
NORAD_CAT_ID   = 16908
ELEMENT_SET_NO = 999
REV_AT_EPOCH   = 45984
BSTAR          = .14605E-3
MEAN_MOTION_DOT = -.77E-6
MEAN_MOTION_DDOT = 0

CCSDS_OMM_VERS = 2.0
CREATION_DATE  = 
ORIGINATOR     = 

OBJECT_NAME    = COSMOS 1812
OBJECT_ID      = 1987-003A
CENTER_NAME    = EARTH
REF_FRAME      = TEME
TIME_SYSTEM    = UTC
MEAN_ELEMENT_THEORY = SGP/SGP4

EPOCH          = 2026-01-03T03:59:42.279648
MEAN_MOTION    = 15.80821533
ECCENTRICITY   = .0004746
INCLINATION    = 82.4860
RA_OF_ASC_NODE = 268.7427
ARG_OF_PERICENTER = 60.1209
MEAN_ANOMALY   = 300.0530

EPHEMERIS_TYPE = 0
CLASSIFICATION_TYPE = U
NORAD_CAT_ID   = 17295
ELEMENT_SET_NO = 999
REV_AT_EPOCH   = 13403
BSTAR          = .9009E-3
MEAN_MOTION_DOT = .176169E-2
MEAN_MOTION_DDOT = 0

CCSDS_OMM_VERS = 2.0
CREATION_DATE  = 
ORIGINATOR     = 

OBJECT_NAME    = SL-14 R/B
OBJECT_ID      = 1987-024B
CENTER_NAME    = EARTH
REF_FRAME      = TEME
TIME_SYSTEM    = UTC
MEAN_ELEMENT_THEORY = SGP/SGP4

EPOCH          = 2026-01-03T02:59:29.844672
MEAN_MOTION    = 14.86053799
ECCENTRICITY   = .0019511
INCLINATION    = 82.5286
RA_OF_ASC_NODE = 154.3654
ARG_OF_PERICENTER = 115.9880
MEAN_ANOMALY   = 244.3349

EPHEMERIS_TYPE = 0
CLASSIFICATION_TYPE = U
NORAD_CAT_ID   = 17567
ELEMENT_SET_NO = 999
REV_AT_EPOCH   = 7839
BSTAR          = .11975E-3
MEAN_MOTION_DOT = .1075E-4
MEAN_MOTION_DDOT = 0

CCSDS_OMM_VERS = 2.0
CREATION_DATE  = 
ORIGINATOR     = 

OBJECT_NAME    = COSMOS 1833
OBJECT_ID      = 1987-027A
CENTER_NAME    = EARTH
REF_FRAME      = TEME
TIME_SYSTEM    = UTC
MEAN_ELEMENT_THEORY = SGP/SGP4

EPOCH          = 2026-01-02T17:49:26.475456
MEAN_MOTION    = 14.13034621
ECCENTRICITY   = .00235225
INCLINATION    = 70.9181
RA_OF_ASC_NODE = 104.6279
ARG_OF_PERICENTER = 302.5285
MEAN_ANOMALY   = 57.3563

EPHEMERIS_TYPE = 0
CLASSIFICATION_TYPE = U
NORAD_CAT_ID   = 17589
ELEMENT_SET_NO = 999
REV_AT_EPOCH   = 100
BSTAR          = .21210764E-3
MEAN_MOTION_DOT = .349E-5
MEAN_MOTION_DDOT = 0

CCSDS_OMM_VERS = 2.0
CREATION_DATE  = 
ORIGINATOR     = 

OBJECT_NAME    = SL-16 R/B
OBJECT_ID      = 1987-027B
CENTER_NAME    = EARTH
REF_FRAME      = TEME
TIME_SYSTEM    = UTC
MEAN_ELEMENT_THEORY = SGP/SGP4

EPOCH          = 2026-01-03T04:33:11.578176
MEAN_MOTION    = 14.17156316
ECCENTRICITY   = .0006969
INCLINATION    = 71.0030
RA_OF_ASC_NODE = 54.5195
ARG_OF_PERICENTER = 237.3130
MEAN_ANOMALY   = 122.7322

EPHEMERIS_TYPE = 0
CLASSIFICATION_TYPE = U
NORAD_CAT_ID   = 17590
ELEMENT_SET_NO = 999
REV_AT_EPOCH   = 606
BSTAR          = .60166E-4
MEAN_MOTION_DOT = .73E-6
MEAN_MOTION_DDOT = 0

CCSDS_OMM_VERS = 2.0
CREATION_DATE  = 
ORIGINATOR     = 

OBJECT_NAME    = SL-14 R/B
OBJECT_ID      = 1987-038B
CENTER_NAME    = EARTH
REF_FRAME      = TEME
TIME_SYSTEM    = UTC
MEAN_ELEMENT_THEORY = SGP/SGP4

EPOCH          = 2026-01-03T02:03:38.456064
MEAN_MOTION    = 14.85287540
ECCENTRICITY   = .0019976
INCLINATION    = 82.5013
RA_OF_ASC_NODE = 358.5928
ARG_OF_PERICENTER = 25.8769
MEAN_ANOMALY   = 334.3441

EPHEMERIS_TYPE = 0
CLASSIFICATION_TYPE = U
NORAD_CAT_ID   = 17912
ELEMENT_SET_NO = 999
REV_AT_EPOCH   = 6949
BSTAR          = .11036E-3
MEAN_MOTION_DOT = .975E-5
MEAN_MOTION_DDOT = 0

CCSDS_OMM_VERS = 2.0
CREATION_DATE  = 
ORIGINATOR     = 

OBJECT_NAME    = COSMOS 1844
OBJECT_ID      = 1987-041A
CENTER_NAME    = EARTH
REF_FRAME      = TEME
TIME_SYSTEM    = UTC
MEAN_ELEMENT_THEORY = SGP/SGP4

EPOCH          = 2026-01-02T22:02:08.243808
MEAN_MOTION    = 14.14538257
ECCENTRICITY   = .0028905
INCLINATION    = 70.8987
RA_OF_ASC_NODE = 172.9021
ARG_OF_PERICENTER = 123.6514
MEAN_ANOMALY   = 236.7371

EPHEMERIS_TYPE = 0
CLASSIFICATION_TYPE = U
NORAD_CAT_ID   = 17973
ELEMENT_SET_NO = 999
REV_AT_EPOCH   = 99428
BSTAR          = .14471E-3
MEAN_MOTION_DOT = .231E-5
MEAN_MOTION_DDOT = 0

CCSDS_OMM_VERS = 2.0
CREATION_DATE  = 
ORIGINATOR     = 

OBJECT_NAME    = SL-14 R/B
OBJECT_ID      = 1987-055B
CENTER_NAME    = EARTH
REF_FRAME      = TEME
TIME_SYSTEM    = UTC
MEAN_ELEMENT_THEORY = SGP/SGP4

EPOCH          = 2026-01-03T01:46:35.253696
MEAN_MOTION    = 14.85547372
ECCENTRICITY   = .0019546
INCLINATION    = 82.4984
RA_OF_ASC_NODE = 50.8802
ARG_OF_PERICENTER = 227.8271
MEAN_ANOMALY   = 132.1286

EPHEMERIS_TYPE = 0
CLASSIFICATION_TYPE = U
NORAD_CAT_ID   = 18153
ELEMENT_SET_NO = 999
REV_AT_EPOCH   = 6019
BSTAR          = .98846E-4
MEAN_MOTION_DOT = .88E-5
MEAN_MOTION_DDOT = 0

CCSDS_OMM_VERS = 2.0
CREATION_DATE  = 
ORIGINATOR     = 

OBJECT_NAME    = COSMOS 1867
OBJECT_ID      = 1987-060A
CENTER_NAME    = EARTH
REF_FRAME      = TEME
TIME_SYSTEM    = UTC
MEAN_ELEMENT_THEORY = SGP/SGP4

EPOCH          = 2026-01-02T16:49:50.203200
MEAN_MOTION    = 14.31490617
ECCENTRICITY   = .00138614
INCLINATION    = 65.0102
RA_OF_ASC_NODE = 131.5017
ARG_OF_PERICENTER = 273.3279
MEAN_ANOMALY   = 86.6219

EPHEMERIS_TYPE = 0
CLASSIFICATION_TYPE = U
NORAD_CAT_ID   = 18187
ELEMENT_SET_NO = 999
REV_AT_EPOCH   = 1049
BSTAR          = .65197626E-4
MEAN_MOTION_DOT = .73E-6
MEAN_MOTION_DDOT = 0

CCSDS_OMM_VERS = 2.0
CREATION_DATE  = 
ORIGINATOR     = 

OBJECT_NAME    = SL-14 R/B
OBJECT_ID      = 1988-001B
CENTER_NAME    = EARTH
REF_FRAME      = TEME
TIME_SYSTEM    = UTC
MEAN_ELEMENT_THEORY = SGP/SGP4

EPOCH          = 2026-01-03T03:10:39.118080
MEAN_MOTION    = 14.85450471
ECCENTRICITY   = .00196
INCLINATION    = 82.5128
RA_OF_ASC_NODE = 257.0277
ARG_OF_PERICENTER = 94.7210
MEAN_ANOMALY   = 265.6245

EPHEMERIS_TYPE = 0
CLASSIFICATION_TYPE = U
NORAD_CAT_ID   = 18749
ELEMENT_SET_NO = 999
REV_AT_EPOCH   = 3229
BSTAR          = .98458E-4
MEAN_MOTION_DOT = .876E-5
MEAN_MOTION_DDOT = 0

