SL-14 R/B               
1 16792U 86046B   26003.13478347  .00001041  00000+0  11713-3 0  9998
2 16792  82.4827 142.1091 0024548  85.0922 275.3096 14.85514581116670
SL-14 R/B               
1 16882U 86055B   26003.00798117  .00001039  00000+0  11710-3 0  9998
2 16882  82.5198 188.3873 0018709 185.2571 291.2672 14.85557648109611
AJISAI (EGS)            
1 16908U 86061A   26003.20649831 -.00000077  00000+0  14605-3 0  9992
2 16908  50.0104 294.7095 0011319 119.7688  45.8655 12.44514585459849
COSMOS 1812             
1 17295U 87003A   26003.16646157  .00176169  00000+0  90090-3 0  9999
2 17295  82.4860 268.7427 0004746  60.1209 300.0530 15.80821533134037
SL-14 R/B               
1 17567U 87024B   26003.12465098  .00001075  00000+0  11975-3 0  9991
2 17567  82.5286 154.3654 0019511 115.9880 244.3349 14.86053799 78394
COSMOS 1833             
1 17589U 87027A   26002.74266754  .00000349  00000+0  21211-3 0  9990
2 17589  70.9181 104.6279 0023522 302.5285  57.3563 14.13034621  1001
SL-16 R/B               
1 17590U 87027B   26003.18971734  .00000073  00000+0  60166-4 0  9999
2 17590  71.0030  54.5195 0006969 237.3130 122.7322 14.17156316  6069
SL-14 R/B               
1 17912U 87038B   26003.08586176  .00000975  00000+0  11036-3 0  9992
2 17912  82.5013 358.5928 0019976  25.8769 334.3441 14.85287540 69494
COSMOS 1844             
1 17973U 87041A   26002.91815097  .00000231  00000+0  14471-3 0  9992
2 17973  70.8987 172.9021 0028905 123.6514 236.7371 14.14538257994287
SL-14 R/B               
1 18153U 87055B   26003.07401914  .00000880  00000+0  98846-4 0  9994
2 18153  82.4984  50.8802 0019546 227.8271 132.1286 14.85547372 60197
COSMOS 1867             
1 18187U 87060A   26002.70127550  .00000073  00000+0  65198-4 0  9995
2 18187  65.0102 131.5017 0013861 273.3279  86.6219 14.31490617 10493
SL-14 R/B               
1 18749U 88001B   26003.13239720  .00000876  00000+0  98458-4 0  9992
2 18749  82.5128 257.0277 0019600  94.7210 265.6245 14.85450471 32291
